[
    {
        "Altitude(m)": 576158.8631873324,
        "Argument of Periapsis(deg)": -0.037671934638287344,
        "Eccentricity": 0.0,
        "Inclination(deg)": 97.0,
        "Latitude(deg)": -33.70542602621246,
        "Longitude(deg)": -39.25619130877544,
        "Mean Anomaly(deg)": -33.68316121802087,
        "RAAN(deg)": 60.00991175603085,
        "Satellite Name": "Starlink Shell 3 1743",
        "Satellite Number": 1743,
        "Semi-Major Axis(m)": 6938478.169268562,
        "Time(s)": 950
    },
    {
        "Altitude(m)": 575910.8705256777,
        "Argument of Periapsis(deg)": -0.03806848131869037,
        "Eccentricity": 0.0,
        "Inclination(deg)": 97.0,
        "Latitude(deg)": -33.08619425191041,
        "Longitude(deg)": -39.406708888077226,
        "Mean Anomaly(deg)": -33.057685020315816,
        "RAAN(deg)": 60.01001609030486,
        "Satellite Name": "Starlink Shell 3 1743",
        "Satellite Number": 1743,
        "Semi-Major Axis(m)": 6938478.169268562,
        "Time(s)": 960
    },
    {
        "Altitude(m)": 575664.0808660558,
        "Argument of Periapsis(deg)": -0.0384650279990934,
        "Eccentricity": 0.0,
        "Inclination(deg)": 97.0,
        "Latitude(deg)": -32.46677896292454,
        "Longitude(deg)": -39.55571965653362,
        "Mean Anomaly(deg)": -32.43220882261075,
        "RAAN(deg)": 60.01012042457886,
        "Satellite Name": "Starlink Shell 3 1743",
        "Satellite Number": 1743,
        "Semi-Major Axis(m)": 6938478.169268562,
        "Time(s)": 970
    },
    {
        "Altitude(m)": 575418.5878303737,
        "Argument of Periapsis(deg)": -0.03886157467949641,
        "Eccentricity": 0.0,
        "Inclination(deg)": 97.0,
        "Latitude(deg)": -31.847184211512012,
        "Longitude(deg)": -39.70327910666568,
        "Mean Anomaly(deg)": -31.806732624905734,
        "RAAN(deg)": 60.01022475885287,
        "Satellite Name": "Starlink Shell 3 1743",
        "Satellite Number": 1743,
        "Semi-Major Axis(m)": 6938478.169268562,
        "Time(s)": 980
    },
    {
        "Altitude(m)": 575174.4842885894,
        "Argument of Periapsis(deg)": -0.03925812135989944,
        "Eccentricity": 0.0,
        "Inclination(deg)": 97.0,
        "Latitude(deg)": -31.227413957667014,
        "Longitude(deg)": -39.849440099994,
        "Mean Anomaly(deg)": -31.181256427200683,
        "RAAN(deg)": 60.010329093126884,
        "Satellite Name": "Starlink Shell 3 1743",
        "Satellite Number": 1743,
        "Semi-Major Axis(m)": 6938478.169268562,
        "Time(s)": 990
    }
]